IRIDIUM 143             
1 43258U 18030K   24098.95397419 -.00000050  00000+0 -24969-4 0  9994
2 43258  86.3924 264.9323 0001924  80.3836 279.7577 14.34217285315391
IRIDIUM 161             
1 43478U 18047C   24098.95244632  .00000482  00000+0  13732-3 0  9996
2 43478  86.4475  62.8968 0002292  89.0503 271.0961 14.43277528309710
IRIDIUM 147             
1 43480U 18047E   24098.93302954  .00000010  00000+0 -36445-5 0  9995
2 43480  86.3949  62.7555 0002353  91.3419 268.8046 14.34216667307789
IRIDIUM 110             
1 43481U 18047F   24098.93937712  .00000133  00000+0  40284-4 0  9992
2 43481  86.3953  62.8239 0002603  92.7044 267.4449 14.34217088307771
IRIDIUM 162             
1 43482U 18047G   24098.94615909  .00000459  00000+0  13035-3 0  9999
2 43482  86.4474  62.8004 0002394  93.1225 267.0249 14.43275453309703
IRIDIUM 160             
1 43569U 18061A   24098.88521828  .00000307  00000+0  10268-3 0  9997
2 43569  86.4013  31.2171 0001948  94.6894 265.4524 14.34219256298664
